STARLINK-2684
1 48471U 21040AV  26061.16668981  .01387989  00000+0  71774-1 0  9992
2 48471  53.0812 225.3118 0001865  89.3263  63.4310 15.12758114  5825
